{"type": "FeatureCollection", "features": [ {"type": "Feature", "properties": {"norad_id": 33939, "name": "COSMOS 2251 DEB", "group": "cosmos-2251-debris", "lat": -21.68855049145321, "lon": -118.78413805437124, "alt_km": 572.9816741523846, "timestamp": "2025-12-25T11:37:44.832575+00:00", "meta": {"OBJECT_NAME": "COSMOS 2251 DEB", "OBJECT_ID": "1993-036EU", "EPOCH": "2025-12-24T12:19:51.320352", "MEAN_MOTION": 15.00680764, "ECCENTRICITY": 0.00049376, "INCLINATION": 74.0056, "RA_OF_ASC_NODE": 56.6432, "ARG_OF_PERICENTER": 16.2859, "MEAN_ANOMALY": 343.8486, "EPHEMERIS_TYPE": 0, "CLASSIFICATION_TYPE": "U", "NORAD_CAT_ID": 33939, "ELEMENT_SET_NO": 999, "REV_AT_EPOCH": 88929, "BSTAR": 0.0029907865, "MEAN_MOTION_DOT": 0.00038049, "MEAN_MOTION_DDOT": 0}, "tle": {"line1": "1 33939U 93036EU  25358.51378843  .00038049  00000+0  29908-2 0  9993", "line2": "2 33939  74.0056  56.6432 0004937  16.2859 343.8486 15.00680764889290"}}, "geometry": {"type": "Point", "coordinates": [-118.78413805437124, -21.68855049145321]}}, {"type": "Feature", "properties": {"norad_id": 33940, "name": "COSMOS 2251 DEB", "group": "cosmos-2251-debris", "lat": -49.213497030800056, "lon": -41.39885542386449, "alt_km": 696.7725457150736, "timestamp": "2025-12-25T11:37:44.832585+00:00", "meta": {"OBJECT_NAME": "COSMOS 2251 DEB", "OBJECT_ID": "1993-036EV", "EPOCH": "2025-12-24T18:48:36.483840", "MEAN_MOTION": 14.58907475, "ECCENTRICITY": 0.00107123, "INCLINATION": 74.04, "RA_OF_ASC_NODE": 120.5632, "ARG_OF_PERICENTER": 201.3982, "MEAN_ANOMALY": 311.3169, "EPHEMERIS_TYPE": 0, "CLASSIFICATION_TYPE": "U", "NORAD_CAT_ID": 33940, "ELEMENT_SET_NO": 999, "REV_AT_EPOCH": 88769, "BSTAR": 0.0011497519, "MEAN_MOTION_DOT": 5.367e-05, "MEAN_MOTION_DDOT": 0}, "tle": {"line1": "1 33940U 93036EV  25358.78375560  .00005367  00000+0  11498-2 0  9999", "line2": "2 33940  74.0400 120.5632 0010712 201.3982 311.3169 14.58907475887693"}}, "geometry": {"type": "Point", "coordinates": [-41.39885542386449, -49.213497030800056]}}, {"type": "Feature", "properties": {"norad_id": 33942, "name": "COSMOS 2251 DEB", "group": "cosmos-2251-debris", "lat": -12.529197168320025, "lon": 75.00489266878958, "alt_km": 780.4659273906036, "timestamp": "2025-12-25T11:37:44.832595+00:00", "meta": {"OBJECT_NAME": "COSMOS 2251 DEB", "OBJECT_ID": "1993-036EX", "EPOCH": "2025-12-25T03:05:19.738752", "MEAN_MOTION": 14.38004818, "ECCENTRICITY": 0.0020816, "INCLINATION": 74.0361, "RA_OF_ASC_NODE": 252.0128, "ARG_OF_PERICENTER": 333.0607, "MEAN_ANOMALY": 178.6132, "EPHEMERIS_TYPE": 0, "CLASSIFICATION_TYPE": "U", "NORAD_CAT_ID": 33942, "ELEMENT_SET_NO": 999, "REV_AT_EPOCH": 88312, "BSTAR": 0.00019385, "MEAN_MOTION_DOT": 5.61e-06, "MEAN_MOTION_DDOT": 0}, "tle": {"line1": "1 33942U 93036EX  25359.12870068  .00000561  00000+0  19385-3 0  9998", "line2": "2 33942  74.0361 252.0128 0020816 333.0607 178.6132 14.38004818883120"}}, "geometry": {"type": "Point", "coordinates": [75.00489266878958, -12.529197168320025]}}, {"type": "Feature", "properties": {"norad_id": 33944, "name": "COSMOS 2251 DEB", "group": "cosmos-2251-debris", "lat": 36.740256259897755, "lon": -62.18728636578327, "alt_km": 687.0063398868824, "timestamp": "2025-12-25T11:37:44.832606+00:00", "meta": {"OBJECT_NAME": "COSMOS 2251 DEB", "OBJECT_ID": "1993-036EZ", "EPOCH": "2025-12-24T22:24:26.018208", "MEAN_MOTION": 14.37370487, "ECCENTRICITY": 0.0112724, "INCLINATION": 74.0407, "RA_OF_ASC_NODE": 286.4918, "ARG_OF_PERICENTER": 22.9901, "MEAN_ANOMALY": 45.6367, "EPHEMERIS_TYPE": 0, "CLASSIFICATION_TYPE": "U", "NORAD_CAT_ID": 33944, "ELEMENT_SET_NO": 999, "REV_AT_EPOCH": 88203, "BSTAR": 0.00037223, "MEAN_MOTION_DOT": 1.169e-05, "MEAN_MOTION_DDOT": 0}, "tle": {"line1": "1 33944U 93036EZ  25358.93363447  .00001169  00000+0  37223-3 0  9992", "line2": "2 33944  74.0407 286.4918 0112724  22.9901  45.6367 14.37370487882031"}}, "geometry": {"type": "Point", "coordinates": [-62.18728636578327, 36.740256259897755]}}, {"type": "Feature", "properties": {"norad_id": 33945, "name": "COSMOS 2251 DEB", "group": "cosmos-2251-debris", "lat": 60.69179963205332, "lon": -46.414043769527666, "alt_km": 761.8703178294527, "timestamp": "2025-12-25T11:37:44.832616+00:00", "meta": {"OBJECT_NAME": "COSMOS 2251 DEB", "OBJECT_ID": "1993-036FA", "EPOCH": "2025-12-25T02:57:35.889984", "MEAN_MOTION": 14.34610317, "ECCENTRICITY": 0.0022447, "INCLINATION": 74.0303, "RA_OF_ASC_NODE": 283.5762, "ARG_OF_PERICENTER": 6.645, "MEAN_ANOMALY": 353.4995, "EPHEMERIS_TYPE": 0, "CLASSIFICATION_TYPE": "U", "NORAD_CAT_ID": 33945, "ELEMENT_SET_NO": 999, "REV_AT_EPOCH": 88193, "BSTAR": 0.00013917, "MEAN_MOTION_DOT": 3.68e-06, "MEAN_MOTION_DDOT": 0}, "tle": {"line1": "1 33945U 93036FA  25359.12333206  .00000368  00000+0  13917-3 0  9999", "line2": "2 33945  74.0303 283.5762 0022447   6.6450 353.4995 14.34610317881933"}}, "geometry": {"type": "Point", "coordinates": [-46.414043769527666, 60.69179963205332]}}, {"type": "Feature", "properties": {"norad_id": 33948, "name": "COSMOS 2251 DEB", "group": "cosmos-2251-debris", "lat": -37.34969793856873, "lon": -90.86768854608896, "alt_km": 765.0739666230384, "timestamp": "2025-12-25T11:37:44.832626+00:00", "meta": {"OBJECT_NAME": "COSMOS 2251 DEB", "OBJECT_ID": "1993-036FD", "EPOCH": "2025-12-25T01:46:32.939040", "MEAN_MOTION": 14.35643318, "ECCENTRICITY": 0.0023272, "INCLINATION": 74.0361, "RA_OF_ASC_NODE": 282.5036, "ARG_OF_PERICENTER": 355.4381, "MEAN_ANOMALY": 4.6555, "EPHEMERIS_TYPE": 0, "CLASSIFICATION_TYPE": "U", "NORAD_CAT_ID": 33948, "ELEMENT_SET_NO": 999, "REV_AT_EPOCH": 88200, "BSTAR": 0.00019649, "MEAN_MOTION_DOT": 5.42e-06, "MEAN_MOTION_DDOT": 0}, "tle": {"line1": "1 33948U 93036FD  25359.07399235  .00000542  00000+0  19649-3 0  9992", "line2": "2 33948  74.0361 282.5036 0023272 355.4381   4.6555 14.35643318882002"}}, "geometry": {"type": "Point", "coordinates": [-90.86768854608896, -37.34969793856873]}}, {"type": "Feature", "properties": {"norad_id": 33971, "name": "COSMOS 2251 DEB", "group": "cosmos-2251-debris", "lat": -35.14964707213697, "lon": 61.81643431767723, "alt_km": 770.2805489599623, "timestamp": "2025-12-25T11:37:44.832636+00:00", "meta": {"OBJECT_NAME": "COSMOS 2251 DEB", "OBJECT_ID": "1993-036FE", "EPOCH": "2025-12-25T03:02:31.713216", "MEAN_MOTION": 14.39745425, "ECCENTRICITY": 0.0019006, "INCLINATION": 74.0238, "RA_OF_ASC_NODE": 230.8403, "ARG_OF_PERICENTER": 329.3481, "MEAN_ANOMALY": 193.8334, "EPHEMERIS_TYPE": 0, "CLASSIFICATION_TYPE": "U", "NORAD_CAT_ID": 33971, "ELEMENT_SET_NO": 999, "REV_AT_EPOCH": 88317, "BSTAR": 0.0002364, "MEAN_MOTION_DOT": 7.16e-06, "MEAN_MOTION_DDOT": 0}, "tle": {"line1": "1 33971U 93036FE  25359.12675594  .00000716  00000+0  23640-3 0  9998", "line2": "2 33971  74.0238 230.8403 0019006 329.3481 193.8334 14.39745425883177"}}, "geometry": {"type": "Point", "coordinates": [61.81643431767723, -35.14964707213697]}}, {"type": "Feature", "properties": {"norad_id": 33972, "name": "COSMOS 2251 DEB", "group": "cosmos-2251-debris", "lat": -3.402634363384928, "lon": 166.21553544444873, "alt_km": 693.0383201232808, "timestamp": "2025-12-25T11:37:44.832646+00:00", "meta": {"OBJECT_NAME": "COSMOS 2251 DEB", "OBJECT_ID": "1993-036FF", "EPOCH": "2025-12-22T11:54:25.691616", "MEAN_MOTION": 14.36292058, "ECCENTRICITY": 0.01238157, "INCLINATION": 73.9934, "RA_OF_ASC_NODE": 172.696, "ARG_OF_PERICENTER": 338.2339, "MEAN_ANOMALY": 51.7728, "EPHEMERIS_TYPE": 0, "CLASSIFICATION_TYPE": "U", "NORAD_CAT_ID": 33972, "ELEMENT_SET_NO": 999, "REV_AT_EPOCH": 87214, "BSTAR": 0.0012268858, "MEAN_MOTION_DOT": 3.888e-05, "MEAN_MOTION_DDOT": 0}, "tle": {"line1": "1 33972U 93036FF  25356.49613069  .00003888  00000+0  12269-2 0  9992", "line2": "2 33972  73.9934 172.6960 0123815 338.2339  51.7728 14.36292058872145"}}, "geometry": {"type": "Point", "coordinates": [166.21553544444873, -3.402634363384928]}}, {"type": "Feature", "properties": {"norad_id": 33973, "name": "COSMOS 2251 DEB", "group": "cosmos-2251-debris", "lat": 14.695530372981127, "lon": -105.21544332548463, "alt_km": 741.3868287457681, "timestamp": "2025-12-25T11:37:44.832656+00:00", "meta": {"OBJECT_NAME": "COSMOS 2251 DEB", "OBJECT_ID": "1993-036FG", "EPOCH": "2025-12-24T17:09:56.410272", "MEAN_MOTION": 14.45403322, "ECCENTRICITY": 0.00473769, "INCLINATION": 74.0086, "RA_OF_ASC_NODE": 80.5336, "ARG_OF_PERICENTER": 256.7581, "MEAN_ANOMALY": 226.9237, "EPHEMERIS_TYPE": 0, "CLASSIFICATION_TYPE": "U", "NORAD_CAT_ID": 33973, "ELEMENT_SET_NO": 999, "REV_AT_EPOCH": 88773, "BSTAR": 0.00014644554, "MEAN_MOTION_DOT": 4.94e-06, "MEAN_MOTION_DDOT": 0}, "tle": {"line1": "1 33973U 93036FG  25358.71523623  .00000494  00000+0  14645-3 0  9997", "line2": "2 33973  74.0086  80.5336 0047376 256.7581 226.9237 14.45403322887730"}}, "geometry": {"type": "Point", "coordinates": [-105.21544332548463, 14.695530372981127]}}, {"type": "Feature", "properties": {"norad_id": 33975, "name": "COSMOS 2251 DEB", "group": "cosmos-2251-debris", "lat": -29.766284773062846, "lon": -108.38003866721272, "alt_km": 765.2312083886127, "timestamp": "2025-12-25T11:37:44.832667+00:00", "meta": {"OBJECT_NAME": "COSMOS 2251 DEB", "OBJECT_ID": "1993-036FJ", "EPOCH": "2025-12-24T10:37:31.630080", "MEAN_MOTION": 14.00546977, "ECCENTRICITY": 0.01908754, "INCLINATION": 73.8016, "RA_OF_ASC_NODE": 63.881, "ARG_OF_PERICENTER": 194.9638, "MEAN_ANOMALY": 164.5802, "EPHEMERIS_TYPE": 0, "CLASSIFICATION_TYPE": "U", "NORAD_CAT_ID": 33975, "ELEMENT_SET_NO": 999, "REV_AT_EPOCH": 85993, "BSTAR": 0.00050046433, "MEAN_MOTION_DOT": 8.45e-06, "MEAN_MOTION_DDOT": 0}, "tle": {"line1": "1 33975U 93036FJ  25358.44272720  .00000845  00000+0  50046-3 0  9993", "line2": "2 33975  73.8016  63.8810 0190875 194.9638 164.5802 14.00546977859933"}}, "geometry": {"type": "Point", "coordinates": [-108.38003866721272, -29.766284773062846]}}]}